NORAD_CAT_ID,OBJECT_NAME,OBJECT_TYPE,EPOCH,MEAN_MOTION,ECCENTRICITY,INCLINATION,RA_OF_ASC_NODE,ARG_OF_PERICENTER,MEAN_ANOMALY,BSTAR,MEAN_MOTION_DOT,MEAN_MOTION_DDOT,TLE_LINE0,TLE_LINE1,TLE_LINE2,SEMIMAJOR_AXIS,PERIOD,APOGEE,PERIGEE,DECAYED
49733.0,STARLINK-3252,PAYLOAD,2023-01-22 17:39:38,15.08831533,0.0001238,53.2152,245.5478,76.0338,284.0791,-0.00014258,-2.556e-05,0.0,0 STARLINK-3252,1 49733U 21115K   23022.73585706 -.00002556  00000-0 -14258-3 0  9999,2 49733  53.2152 245.5478 0001238  76.0338 284.0791 15.08831533 64101,6917.906,95.438,540.628,538.915,0.0
49733.0,STARLINK-3252,PAYLOAD,2023-01-23 07:58:06,15.08844712,0.0001093,53.2152,242.8739,78.5188,281.5927,6.2405e-05,7.06e-06,0.0,0 STARLINK-3252,1 49733U 21115K   23023.33201393  .00000706  00000-0  62405-4 0  9994,2 49733  53.2152 242.8739 0001093  78.5188 281.5927 15.08844712 64195,6917.866,95.437,540.487,538.975,0.0
49733.0,STARLINK-3252,PAYLOAD,2023-01-24 09:24:16,15.08840942,0.0001017,53.2159,238.1148,110.9391,249.171,0.00023262,3.416e-05,0.0,0 STARLINK-3252,1 49733U 21115K   23024.39185467  .00003416  00000-0  23262-3 0  9992,2 49733  53.2159 238.1148 0001017 110.9391 249.1710 15.08840942 64356,6917.878000000001,95.437,540.446,539.039,0.0
49733.0,STARLINK-3252,PAYLOAD,2023-01-25 14:01:13,15.08830134,0.0001145,53.2155,232.763,80.4659,279.6463,0.00014424,2.008e-05,0.0,0 STARLINK-3252,1 49733U 21115K   23025.58418064  .00002008  00000-0  14424-3 0  9992,2 49733  53.2155 232.7630 0001145  80.4659 279.6463 15.08830134 64533,6917.911,95.438,540.568,538.9830000000001,0.0
49733.0,STARLINK-3252,PAYLOAD,2023-01-25 20:22:45,15.08843816,0.00011,53.2156,231.5737,83.3049,276.8068,-7.441900000000001e-06,-4.06e-06,0.0,0 STARLINK-3252,1 49733U 21115K   23025.84913432 -.00000406  00000-0 -74419-5 0  9994,2 49733  53.2156 231.5737 0001100  83.3049 276.8068 15.08843816 64570,6917.869000000001,95.437,540.495,538.9730000000001,0.0
49733.0,STARLINK-3252,PAYLOAD,2023-01-25 23:33:31,15.08844333,0.0001105,53.2156,230.9789,82.9411,277.1707,-4.4059e-06,-3.58e-06,0.0,0 STARLINK-3252,1 49733U 21115K   23025.98161348 -.00000358  00000-0 -44059-5 0  9993,2 49733  53.2156 230.9789 0001105  82.9411 277.1707 15.08844333 63481,6917.866999999999,95.437,540.497,538.9680000000001,0.0
49733.0,STARLINK-3252,PAYLOAD,2023-01-26 21:48:55,15.08841624,0.0001135,53.2157,226.8159,83.0426,277.0695,6.1898e-05,6.97e-06,0.0,0 STARLINK-3252,1 49733U 21115K   23026.90897322  .00000697  00000-0  61898-4 0  9997,2 49733  53.2157 226.8159 0001135  83.0426 277.0695 15.08841624 64732,6917.875,95.437,540.526,538.955,0.0
49733.0,STARLINK-3252,PAYLOAD,2023-01-27 05:45:51,15.08836272,0.0001123,53.2161,225.3284,79.7989,280.313,1.2029e-05,-9.6e-07,0.0,0 STARLINK-3252,1 49733U 21115K   23027.24017802 -.00000096  00000-0  12029-4 0  9998,2 49733  53.2161 225.3284 0001123  79.7989 280.3130 15.08836272 64782,6917.892,95.438,540.534,538.98,0.0
49733.0,STARLINK-3252,PAYLOAD,2023-01-27 20:04:20,15.08820951,0.0001085999999999,53.2161,222.6525,84.7433,275.3683,0.00021235,3.092e-05,0.0,0 STARLINK-3252,1 49733U 21115K   23027.83634546  .00003092  00000-0  21235-3 0  9999,2 49733  53.2161 222.6525 0001086  84.7433 275.3683 15.08820951 64872,6917.939,95.439,540.555,539.052,0.0
49733.0,STARLINK-3252,PAYLOAD,2023-01-28 05:36:38,15.08837054,0.0001119,53.216,220.8686,83.5511,276.5609,8.4298e-06,-1.54e-06,0.0,0 STARLINK-3252,1 49733U 21115K   23028.23378075 -.00000154  00000-0  84298-5 0  9993,2 49733  53.2160 220.8686 0001119  83.5511 276.5609 15.08837054 64930,6917.889,95.438,540.529,538.98,0.0
49733.0,STARLINK-3252,PAYLOAD,2023-01-28 21:30:29,15.08841637,0.0001105,53.216,217.8949,84.5775,275.5343,4.4272e-05,4.17e-06,0.0,0 STARLINK-3252,1 49733U 21115K   23028.89617755  .00000417  00000-0  44272-4 0  9994,2 49733  53.2160 217.8949 0001105  84.5775 275.5343 15.08841637 63920,6917.875,95.437,540.505,538.976,0.0
49733.0,STARLINK-3252,PAYLOAD,2023-01-29 07:02:48,15.08846739,0.000113,53.2157,216.111,92.5719,267.5403,-8.2814e-05,-1.606e-05,0.0,0 STARLINK-3252,1 49733U 21115K   23029.29361728 -.00001606  00000-0 -82814-4 0  9992,2 49733  53.2157 216.1110 0001130  92.5719 267.5403 15.08846739 65099,6917.86,95.437,540.507,538.943,0.0
49733.0,STARLINK-3252,PAYLOAD,2023-01-29 16:35:07,15.08836146,0.0001051,53.2158,214.3266,92.7093,267.4019,8.514e-05,1.067e-05,0.0,0 STARLINK-3252,1 49733U 21115K   23029.69106038  .00001067  00000-0  85140-4 0  9991,2 49733  53.2158 214.3266 0001051  92.7093 267.4019 15.08836146 65151,6917.892,95.438,540.484,539.03,0.0
49733.0,STARLINK-3252,PAYLOAD,2023-01-29 19:45:53,15.08838457,0.0001051,53.2159,213.7317,92.1186,267.9927,6.8606e-05,8.04e-06,0.0,0 STARLINK-3252,1 49733U 21115K   23029.82353964  .00000804  00000-0  68606-4 0  9994,2 49733  53.2159 213.7317 0001051  92.1186 267.9927 15.08838457 64068,6917.885,95.438,540.477,539.023,0.0
49733.0,STARLINK-3252,PAYLOAD,2023-01-30 11:39:45,15.08836861,0.0001062,53.2159,210.7581,89.1869,270.9245,1.7493e-05,-9e-08,0.0,0 STARLINK-3252,1 49733U 21115K   23030.48594298 -.00000009  00000-0  17493-4 0  9991,2 49733  53.2159 210.7581 0001062  89.1869 270.9245 15.08836861 64169,6917.89,95.438,540.49,539.02,0.0
49733.0,STARLINK-3252,PAYLOAD,2023-01-30 21:12:04,15.08841257,0.0001064,53.2159,208.9737,89.482,270.6294,1.4752e-05,-5.3e-07,0.0,0 STARLINK-3252,1 49733U 21115K   23030.88338042 -.00000053  00000-0  14752-4 0  9992,2 49733  53.2159 208.9737 0001064  89.4820 270.6294 15.08841257 64226,6917.877,95.437,540.478,539.005,0.0
49733.0,STARLINK-3252,PAYLOAD,2023-01-31 05:08:59,15.08838158,0.0001073,53.2159,207.4869,89.0025,271.109,3.0892e-06,-2.39e-06,0.0,0 STARLINK-3252,1 49733U 21115K   23031.21458278 -.00000239  00000-0  30892-5 0  9994,2 49733  53.2159 207.4869 0001073  89.0025 271.1090 15.08838158 65383,6917.886,95.438,540.493,539.009,0.0
49733.0,STARLINK-3252,PAYLOAD,2023-01-31 11:30:32,15.0883847,0.000106,53.2159,206.2973,88.5599,271.5515,2.3687e-05,8.9e-07,0.0,0 STARLINK-3252,1 49733U 21115K   23031.47954202  .00000089  00000-0  23687-4 0  9995,2 49733  53.2159 206.2973 0001060  88.5599 271.5515 15.08838470 64317,6917.885,95.438,540.483,539.017,0.0
49733.0,STARLINK-3252,PAYLOAD,2023-01-31 14:41:18,15.08840096,0.0001075,53.2158,205.7026,88.1466,271.9649,3.4531e-05,2.62e-06,0.0,0 STARLINK-3252,1 49733U 21115K   23031.61202063  .00000262  00000-0  34531-4 0  9995,2 49733  53.2158 205.7026 0001075  88.1466 271.9649 15.08840096 64335,6917.88,95.438,540.489,539.001,0.0
49733.0,STARLINK-3252,PAYLOAD,2023-02-01 04:59:46,15.08842042,0.0001108,53.2157,203.0263,86.6616,273.4503,4.8648e-05,4.87e-06,0.0,0 STARLINK-3252,1 49733U 21115K   23032.20817836  .00000487  00000-0  48648-4 0  9994,2 49733  53.2157 203.0263 0001108  86.6616 273.4503 15.08842042 64424,6917.874,95.437,540.506,538.973,0.0
49733.0,STARLINK-3252,PAYLOAD,2023-02-01 14:32:05,15.08839562,0.0001159,53.2158,201.242,86.668,273.4445,5.4306e-05,5.77e-06,0.0,0 STARLINK-3252,1 49733U 21115K   23032.60561954  .00000577  00000-0  54306-4 0  9993,2 49733  53.2158 201.2420 0001159  86.6680 273.4445 15.08839562 65594,6917.882,95.438,540.549,538.945,0.0
49733.0,STARLINK-3252,PAYLOAD,2023-02-02 11:12:06,15.0883819,0.0001398,53.216,197.3736,99.973,260.142,-1.3447e-05,-5.02e-06,0.0,0 STARLINK-3252,1 49733U 21115K   23033.46674267 -.00000502  00000-0 -13447-4 0  9991,2 49733  53.2160 197.3736 0001398  99.9730 260.1420 15.08838190 64614,6917.886,95.438,540.718,538.784,0.0
49733.0,STARLINK-3252,PAYLOAD,2023-02-03 06:16:44,15.08834952,9.75e-05,53.2161,193.8088,88.8469,271.2635,-7.0946e-06,-4.01e-06,0.0,0 STARLINK-3252,1 49733U 21115K   23034.26162475 -.00000401  00000-0 -70946-5 0  9999,2 49733  53.2161 193.8088 0000975  88.8469 271.2635 15.08834952 65841,6917.896,95.438,540.435,539.086,0.0
49733.0,STARLINK-3252,PAYLOAD,2023-02-03 12:38:16,15.08844941,0.0001435,53.2156,192.6178,94.2227,265.8929,-0.00012594,-2.292e-05,0.0,0 STARLINK-3252,1 49733U 21115K   23034.52658375 -.00002292  00000-0 -12594-3 0  9990,2 49733  53.2156 192.6178 0001435  94.2227 265.8929 15.08844941 64772,6917.865,95.437,540.723,538.738,0.0
49733.0,STARLINK-3252,PAYLOAD,2023-02-04 14:04:26,15.08838048,0.0001113,53.2163,187.8616,91.4526,268.6593,6.2289e-05,7.04e-06,0.0,0 STARLINK-3252,1 49733U 21115K   23035.58642352  .00000704  00000-0  62289-4 0  9996,2 49733  53.2163 187.8616 0001113  91.4526 268.6593 15.08838048 64934,6917.886,95.438,540.521,538.981,0.0
49733.0,STARLINK-3252,PAYLOAD,2023-02-04 20:25:59,15.08843383,0.0001138,53.2161,186.6713,97.1772,262.9349,0.0001022,1.339e-05,0.0,0 STARLINK-3252,1 49733U 21115K   23035.85137847  .00001339  00000-0  10220-3 0  9996,2 49733  53.2161 186.6713 0001138  97.1772 262.9349 15.08843383 66082,6917.87,95.437,540.522,538.948,0.0
49733.0,STARLINK-3252,PAYLOAD,2023-02-05 04:22:55,15.08832804,0.0001266,53.2159,185.1845,91.3268,268.7869,2.5368e-05,1.16e-06,0.0,0 STARLINK-3252,1 49733U 21115K   23036.18258884  .00000116  00000-0  25368-4 0  9990,2 49733  53.2159 185.1845 0001266  91.3268 268.7869 15.08832804 66130,6917.902,95.438,540.643,538.892,0.0
49733.0,STARLINK-3252,PAYLOAD,2023-02-05 13:55:14,15.0883268,0.0001303,53.2157,183.3998,91.8795,268.2347,1.756e-05,-8e-08,0.0,0 STARLINK-3252,1 49733U 21115K   23036.58003076 -.00000008  00000-0  17560-4 0  9991,2 49733  53.2157 183.3998 0001303  91.8795 268.2347 15.08832680 65080,6917.903,95.438,540.669,538.866,0.0
49733.0,STARLINK-3252,PAYLOAD,2023-02-05 18:41:23,15.08838365,0.0001191,53.2164,182.5089,88.7623,271.3506,3.7615e-05,3.11e-06,0.0,0 STARLINK-3252,1 49733U 21115K   23036.77874733  .00000311  00000-0  37615-4 0  9997,2 49733  53.2164 182.5089 0001191  88.7623 271.3506 15.08838365 65112,6917.885,95.438,540.574,538.926,0.0
49733.0,STARLINK-3252,PAYLOAD,2023-02-06 08:59:52,15.08840225,0.0001135,53.2168,179.8333,89.9126,270.1996,3.2413e-05,2.28e-06,0.0,0 STARLINK-3252,1 49733U 21115K   23037.37490754  .00000228  00000-0  32413-4 0  9999,2 49733  53.2168 179.8333 0001135  89.9126 270.1996 15.08840225 66317,6917.88,95.438,540.53,538.96,0.0
